[
    {
        "Altitude(m)": 568688.9678311866,
        "Argument of Periapsis(deg)": 0.019868973332140504,
        "Eccentricity": 0.0,
        "Inclination(deg)": 53.0,
        "Latitude(deg)": -45.25756045366795,
        "Longitude(deg)": -6.510973289132702,
        "Mean Anomaly(deg)": -62.45242139726719,
        "RAAN(deg)": 144.9704301055841,
        "Satellite Name": "Starlink Shell 1 654",
        "Satellite Number": 654,
        "Semi-Major Axis(m)": 6931778.249405717,
        "Time(s)": 570
    },
    {
        "Altitude(m)": 568553.640848588,
        "Argument of Periapsis(deg)": 0.02021755181165174,
        "Eccentricity": 0.0,
        "Inclination(deg)": 53.0,
        "Latitude(deg)": -44.92794515164748,
        "Longitude(deg)": -5.801444669292664,
        "Mean Anomaly(deg)": -61.825590193710504,
        "RAAN(deg)": 144.9699113355066,
        "Satellite Name": "Starlink Shell 1 654",
        "Satellite Number": 654,
        "Semi-Major Axis(m)": 6931778.249405717,
        "Time(s)": 580
    },
    {
        "Altitude(m)": 568416.1377510976,
        "Argument of Periapsis(deg)": 0.020566130291162974,
        "Eccentricity": 0.0,
        "Inclination(deg)": 53.0,
        "Latitude(deg)": -44.593425800234876,
        "Longitude(deg)": -5.100496925170347,
        "Mean Anomaly(deg)": -61.198758990153806,
        "RAAN(deg)": 144.96939256542913,
        "Satellite Name": "Starlink Shell 1 654",
        "Satellite Number": 654,
        "Semi-Major Axis(m)": 6931778.249405717,
        "Time(s)": 590
    },
    {
        "Altitude(m)": 568276.5126771384,
        "Argument of Periapsis(deg)": 0.020914708770674213,
        "Eccentricity": 0.0,
        "Inclination(deg)": 53.0,
        "Latitude(deg)": -44.254112874511236,
        "Longitude(deg)": -4.408055355323023,
        "Mean Anomaly(deg)": -60.5719277865971,
        "RAAN(deg)": 144.96887379535164,
        "Satellite Name": "Starlink Shell 1 654",
        "Satellite Number": 654,
        "Semi-Major Axis(m)": 6931778.249405717,
        "Time(s)": 600
    },
    {
        "Altitude(m)": 568134.8205622431,
        "Argument of Periapsis(deg)": 0.021263287250185448,
        "Eccentricity": 0.0,
        "Inclination(deg)": 53.0,
        "Latitude(deg)": -43.91011522923111,
        "Longitude(deg)": -3.7240397897407123,
        "Mean Anomaly(deg)": -59.94509658304043,
        "RAAN(deg)": 144.96835502527415,
        "Satellite Name": "Starlink Shell 1 654",
        "Satellite Number": 654,
        "Semi-Major Axis(m)": 6931778.249405717,
        "Time(s)": 610
    },
    {
        "Altitude(m)": 567991.1171148951,
        "Argument of Periapsis(deg)": 0.021611865729696686,
        "Eccentricity": 0.0,
        "Inclination(deg)": 53.0,
        "Latitude(deg)": -43.56154005018167,
        "Longitude(deg)": -3.048364534018449,
        "Mean Anomaly(deg)": -59.318265379483634,
        "RAAN(deg)": 144.9678362551967,
        "Satellite Name": "Starlink Shell 1 654",
        "Satellite Number": 654,
        "Semi-Major Axis(m)": 6931778.249405717,
        "Time(s)": 620
    },
    {
        "Altitude(m)": 567845.458791999,
        "Argument of Periapsis(deg)": 0.02196044420920792,
        "Eccentricity": 0.0,
        "Inclination(deg)": 53.0,
        "Latitude(deg)": -43.20849281274392,
        "Longitude(deg)": -2.3809399772457223,
        "Mean Anomaly(deg)": -58.69143417592692,
        "RAAN(deg)": 144.96731748511925,
        "Satellite Name": "Starlink Shell 1 654",
        "Satellite Number": 654,
        "Semi-Major Axis(m)": 6931778.249405717,
        "Time(s)": 630
    },
    {
        "Altitude(m)": 567697.9027740238,
        "Argument of Periapsis(deg)": 0.02230902268871916,
        "Eccentricity": 0.0,
        "Inclination(deg)": 53.0,
        "Latitude(deg)": -42.851077247231316,
        "Longitude(deg)": -1.721671660702272,
        "Mean Anomaly(deg)": -58.064602972370245,
        "RAAN(deg)": 144.96679871504173,
        "Satellite Name": "Starlink Shell 1 654",
        "Satellite Number": 654,
        "Semi-Major Axis(m)": 6931778.249405717,
        "Time(s)": 640
    },
    {
        "Altitude(m)": 567548.5069398017,
        "Argument of Periapsis(deg)": 0.022657601168230398,
        "Eccentricity": 0.0,
        "Inclination(deg)": 53.0,
        "Latitude(deg)": -42.489395310603115,
        "Longitude(deg)": -1.0704618499530658,
        "Mean Anomaly(deg)": -57.43777176881349,
        "RAAN(deg)": 144.96627994496427,
        "Satellite Name": "Starlink Shell 1 654",
        "Satellite Number": 654,
        "Semi-Major Axis(m)": 6931778.249405717,
        "Time(s)": 650
    },
    {
        "Altitude(m)": 567397.3298409971,
        "Argument of Periapsis(deg)": 0.023006179647741636,
        "Eccentricity": 0.0,
        "Inclination(deg)": 53.0,
        "Latitude(deg)": -42.12354716413724,
        "Longitude(deg)": -0.4272094077349516,
        "Mean Anomaly(deg)": -56.81094056525685,
        "RAAN(deg)": 144.9657611748868,
        "Satellite Name": "Starlink Shell 1 654",
        "Satellite Number": 654,
        "Semi-Major Axis(m)": 6931778.249405717,
        "Time(s)": 660
    },
    {
        "Altitude(m)": 567244.4306762727,
        "Argument of Periapsis(deg)": 0.023354758127252868,
        "Eccentricity": 0.0,
        "Inclination(deg)": 53.0,
        "Latitude(deg)": -41.75363115666619,
        "Longitude(deg)": 0.2081903514456112,
        "Mean Anomaly(deg)": -56.184109361700074,
        "RAAN(deg)": 144.96524240480932,
        "Satellite Name": "Starlink Shell 1 654",
        "Satellite Number": 654,
        "Semi-Major Axis(m)": 6931778.249405717,
        "Time(s)": 670
    },
    {
        "Altitude(m)": 567089.8692651369,
        "Argument of Periapsis(deg)": 0.023703336606764106,
        "Eccentricity": 0.0,
        "Inclination(deg)": 53.0,
        "Latitude(deg)": -41.379743812991336,
        "Longitude(deg)": 0.8358443120641315,
        "Mean Anomaly(deg)": -55.55727815814336,
        "RAAN(deg)": 144.96472363473185,
        "Satellite Name": "Starlink Shell 1 654",
        "Satellite Number": 654,
        "Semi-Major Axis(m)": 6931778.249405717,
        "Time(s)": 680
    },
    {
        "Altitude(m)": 566933.7060215346,
        "Argument of Periapsis(deg)": 0.024051915086275345,
        "Eccentricity": 0.0,
        "Inclination(deg)": 53.0,
        "Latitude(deg)": -41.00197982709077,
        "Longitude(deg)": 1.455861739265061,
        "Mean Anomaly(deg)": -54.930446954586664,
        "RAAN(deg)": 144.9642048646544,
        "Satellite Name": "Starlink Shell 1 654",
        "Satellite Number": 654,
        "Semi-Major Axis(m)": 6931778.249405717,
        "Time(s)": 690
    },
    {
        "Altitude(m)": 566776.001927113,
        "Argument of Periapsis(deg)": 0.024400493565786583,
        "Eccentricity": 0.0,
        "Inclination(deg)": 53.0,
        "Latitude(deg)": -40.6204320597605,
        "Longitude(deg)": 2.068354478356765,
        "Mean Anomaly(deg)": -54.30361575102989,
        "RAAN(deg)": 144.9636860945769,
        "Satellite Name": "Starlink Shell 1 654",
        "Satellite Number": 654,
        "Semi-Major Axis(m)": 6931778.249405717,
        "Time(s)": 700
    },
    {
        "Altitude(m)": 566616.8185042473,
        "Argument of Periapsis(deg)": 0.024749072045297815,
        "Eccentricity": 0.0,
        "Inclination(deg)": 53.0,
        "Latitude(deg)": -40.23519154033988,
        "Longitude(deg)": 2.673435658914472,
        "Mean Anomaly(deg)": -53.67678454747324,
        "RAAN(deg)": 144.96316732449944,
        "Satellite Name": "Starlink Shell 1 654",
        "Satellite Number": 654,
        "Semi-Major Axis(m)": 6931778.249405717,
        "Time(s)": 710
    },
    {
        "Altitude(m)": 566456.2177888051,
        "Argument of Periapsis(deg)": 0.025097650524809053,
        "Eccentricity": 0.0,
        "Inclination(deg)": 53.0,
        "Latitude(deg)": -39.84634747217917,
        "Longitude(deg)": 3.271219928848649,
        "Mean Anomaly(deg)": -53.049953343916485,
        "RAAN(deg)": 144.96264855442197,
        "Satellite Name": "Starlink Shell 1 654",
        "Satellite Number": 654,
        "Semi-Major Axis(m)": 6931778.249405717,
        "Time(s)": 720
    },
    {
        "Altitude(m)": 566294.2623026625,
        "Argument of Periapsis(deg)": 0.02544622900432029,
        "Eccentricity": 0.0,
        "Inclination(deg)": 53.0,
        "Latitude(deg)": -39.453987241532,
        "Longitude(deg)": 3.8618237051168967,
        "Mean Anomaly(deg)": -52.423122140359816,
        "RAAN(deg)": 144.96212978434448,
        "Satellite Name": "Starlink Shell 1 654",
        "Satellite Number": 654,
        "Semi-Major Axis(m)": 6931778.249405717,
        "Time(s)": 730
    },
    {
        "Altitude(m)": 566131.015025987,
        "Argument of Periapsis(deg)": 0.02579480748383153,
        "Eccentricity": 0.0,
        "Inclination(deg)": 53.0,
        "Latitude(deg)": -39.05819642956784,
        "Longitude(deg)": 4.445363927720331,
        "Mean Anomaly(deg)": -51.79629093680312,
        "RAAN(deg)": 144.96161101426702,
        "Satellite Name": "Starlink Shell 1 654",
        "Satellite Number": 654,
        "Semi-Major Axis(m)": 6931778.249405717,
        "Time(s)": 740
    },
    {
        "Altitude(m)": 565966.5393693045,
        "Argument of Periapsis(deg)": 0.026143385963342765,
        "Eccentricity": 0.0,
        "Inclination(deg)": 53.0,
        "Latitude(deg)": -38.659058827210096,
        "Longitude(deg)": 5.021958342202889,
        "Mean Anomaly(deg)": -51.169459733246306,
        "RAAN(deg)": 144.96109224418956,
        "Satellite Name": "Starlink Shell 1 654",
        "Satellite Number": 654,
        "Semi-Major Axis(m)": 6931778.249405717,
        "Time(s)": 750
    }
]